[{"OBJECT_NAME":"STARLINK-32158","OBJECT_ID":"2024-131N","EPOCH":"2026-03-09T23:15:48.984480","MEAN_MOTION":15.30193232,"ECCENTRICITY":0.00011615,"INCLINATION":53.161,"RA_OF_ASC_NODE":50.9693,"ARG_OF_PERICENTER":79.2155,"MEAN_ANOMALY":280.8976,"EPHEMERIS_TYPE":0,"CLASSIFICATION_TYPE":"U","NORAD_CAT_ID":60267,"ELEMENT_SET_NO":999,"REV_AT_EPOCH":9166,"BSTAR":5.143326e-5,"MEAN_MOTION_DOT":1.164e-5,"MEAN_MOTION_DDOT":0},{"OBJECT_NAME":"CZ-6A DEB","OBJECT_ID":"2022-151SD","EPOCH":"2026-03-09T21:25:15.700512","MEAN_MOTION":15.24469357,"ECCENTRICITY":0.00248717,"INCLINATION":98.6538,"RA_OF_ASC_NODE":157.5128,"ARG_OF_PERICENTER":174.047,"MEAN_ANOMALY":186.1065,"EPHEMERIS_TYPE":0,"CLASSIFICATION_TYPE":"U","NORAD_CAT_ID":54940,"ELEMENT_SET_NO":999,"REV_AT_EPOCH":17680,"BSTAR":0.0087519903,"MEAN_MOTION_DOT":0.00223015,"MEAN_MOTION_DDOT":0}]
